ONEWEB-0560             
1 55145U 23004F   23026.14147481  .00004828  00000+0  47546-3 0  9992
2 55145  86.5119 278.7209 0014562 163.7154 196.4545 14.91784608  2523
ONEWEB-0565             
1 55146U 23004G   23026.07173796  .00005269  00000+0  51578-3 0  9993
2 55146  86.5099 278.7479 0014841 168.1257 192.0323 14.92037605  2517
ONEWEB-0567             
1 55147U 23004H   23026.67601499  .00004439  00000+0  43469-3 0  9994
2 55147  86.5091 278.4793 0014851 164.9834 195.1838 14.91978913  2602
ONEWEB-0569             
1 55148U 23004J   23026.61588397  .00004872  00000+0  48532-3 0  9997
2 55148  86.5102 278.5117 0013266 155.6572 204.5285 14.91341395  2599
ONEWEB-0570             
1 55149U 23004K   23026.61512346  .00004771  00000+0  47430-3 0  9993
2 55149  86.5098 278.5113 0013573 156.4533 203.7318 14.91415298  2599
ONEWEB-0571             
1 55150U 23004L   23026.14059731  .00004815  00000+0  47313-3 0  9996
2 55150  86.5128 278.7215 0014703 164.9771 195.1896 14.91868658  2524
ONEWEB-0572             
1 55151U 23004M   23026.61648447  .00008566  00000+0  85631-3 0  9999
2 55151  86.5117 278.5189 0013119 154.3843 205.8038 14.91288114  2591
ONEWEB-0573             
1 55152U 23004N   23026.61582042  .00004952  00000+0  49328-3 0  9996
2 55152  86.5111 278.5184 0013539 157.7000 202.4819 14.91343200  2597
ONEWEB-0588             
1 55153U 23004P   23026.62294273  .00005585  00000+0  56615-3 0  9994
2 55153  86.5128 278.5252 0010530 154.8621 205.3121 14.90698374  2599
ONEWEB-0598             
1 55154U 23004Q   23026.58334491 -.00581174  00000+0 -75779-1 0  9992
2 55154  86.5742 278.5691 0011319 151.2524 288.1755 14.83124543  1302
ONEWEB-0599             
1 55155U 23004R   23026.61538036  .00004899  00000+0  48745-3 0  9995
2 55155  86.5114 278.5184 0013453 156.3529 203.8320 14.91387178  2593
ONEWEB-0614             
1 55156U 23004S   23026.58334491 -.00589023  00000+0 -75906-1 0  9997
2 55156  86.5717 278.5677 0011562 152.0459 299.0345 14.83640132  1309
ONEWEB-0616             
1 55157U 23004T   23026.61782340  .00004987  00000+0  49910-3 0  9999
2 55157  86.5099 278.5127 0012648 154.0820 206.1044 14.91162285  2597
ONEWEB-0617             
1 55158U 23004U   23026.58334491 -.00567517  00000+0 -75904-1 0  9991
2 55158  86.5839 278.5889 0009758 153.7171 248.3886 14.82028884  1304
ONEWEB-0618             
1 55159U 23004V   23026.41581874  .00004282  00000+0  42742-3 0  9992
2 55159  86.5114 278.6077 0012763 154.7555 205.4299 14.91229784  2561
ONEWEB-0619             
1 55160U 23004W   23026.61417271  .00004740  00000+0  47013-3 0  9990
2 55160  86.5108 278.5131 0013887 156.7966 203.3891 14.91501182  2595
ONEWEB-0620             
1 55161U 23004X   23026.58334491 -.00602720  00000+0 -78871-1 0  9997
2 55161  86.5733 278.5690 0010981 154.1511 278.4265 14.83072330  1305
ONEWEB-0621             
1 55162U 23004Y   23026.58334491 -.00677383  00000+0 -11809+0 0  9991
2 55162  86.6176 278.7065 0008476 158.3157 252.9162 14.70794738  1306
ONEWEB-0622             
1 55163U 23004Z   23026.75001157 -.00547167  00000+0 -72540-1 0  9998
2 55163  86.5821 278.5150 0010582 155.5891  61.6225 14.82298567  2613
ONEWEB-0623             
1 55164U 23004AA  23026.67751154  .00000514  00000+0  47846-4 0  9991
2 55164  86.5086 278.4804 0014879 162.9609 197.2122 14.91851777  2603
ONEWEB-0624             
1 55165U 23004AB  23026.13913758  .00004944  00000+0  48415-3 0  9996
2 55165  86.5123 278.7197 0014641 167.2172 192.9430 14.92007405  2521
ONEWEB-0625             
1 55166U 23004AC  23026.08023372  .00004732  00000+0  47271-3 0  9999
2 55166  86.5104 278.7508 0012850 156.3415 203.8406 14.91228887  2518
ONEWEB-0626             
1 55167U 23004AD  23026.07176890  .00005944  00000+0  58215-3 0  9999
2 55167  86.5095 278.7480 0014897 168.0611 192.0974 14.92035661  2514
ONEWEB-0627             
1 55168U 23004AE  23026.54286182  .00004999  00000+0  49107-3 0  9997
2 55168  86.5093 278.5391 0014793 164.0240 196.1458 14.91888127  2582
ONEWEB-0628             
1 55169U 23004AF  23026.07276231  .00004734  00000+0  46436-3 0  9999
2 55169  86.5125 278.7508 0014749 166.7995 193.3622 14.91935594  2514
ONEWEB-0629             
1 55170U 23004AG  23026.00406298  .00004848  00000+0  47371-3 0  9997
2 55170  86.5102 278.7775 0015093 169.6057 190.5486 14.92089188  2507
ONEWEB-0631             
1 55171U 23004AH  23026.14102020  .00004812  00000+0  47327-3 0  9991
2 55171  86.5118 278.7209 0014600 164.2113 195.9573 14.91828385  2521
ONEWEB-0709             
1 55172U 23004AJ  23026.75001157 -.00616294  00000+0 -78354-1 0  9995
2 55172  86.5635 278.4853 0011131 154.0288 110.1825 14.84318058  2605
ONEWEB-0710             
1 55173U 23004AK  23026.07481329  .00004725  00000+0  46570-3 0  9999
2 55173  86.5109 278.7504 0014429 163.3129 196.8577 14.91746491  2517
ONEWEB-0711             
1 55174U 23004AL  23026.58334491 -.00603503  00000+0 -80914-1 0  9992
2 55174  86.5799 278.5778 0009948 155.0509 253.9691 14.82081098  1307
ONEWEB-0713             
1 55175U 23004AM  23026.58334491 -.00594340  00000+0 -80058-1 0  9990
2 55175  86.5823 278.5846 0010012 150.7294 246.0122 14.81846972  1300
ONEWEB-0715             
1 55176U 23004AN  23026.58334491 -.00565691  00000+0 -74624-1 0  9990
2 55176  86.5804 278.5841 0009991 154.6852 263.6572 14.82590737  1302
ONEWEB-0716             
1 55177U 23004AP  23026.61466399  .00004782  00000+0  47488-3 0  9995
2 55177  86.5116 278.5174 0013705 156.5594 203.6261 14.91454100  2594
ONEWEB-0717             
1 55178U 23004AQ  23026.58334491  .00074344  00000+0  74840-2 0  9991
2 55178  86.5082 278.5321 0010812 155.2016 359.3963 14.90774577  1300
ONEWEB-0719             
1 55179U 23004AR  23026.61794775  .00004722  00000+0  47254-3 0  9994
2 55179  86.5098 278.5137 0012471 153.8412 206.3448 14.91155153  2595
SJ-23 AKM               
1 55180U 23002C   23026.31062420 -.00000282  00000+0  00000+0 0  9998
2 55180   0.5236  95.1298 0001756 279.5821 345.2622  0.99359761   108
SS-1                    
1 55181U 98067UY  23026.04861902  .00090229  00000+0  13758-2 0  9990
2 55181  51.6412 312.3107 0003913 240.2893 119.7708 15.53700066  3067
HSKSAT                  
1 55182U 98067UZ  23026.37281461  .00054908  00000+0  86478-3 0  9997
2 55182  51.6416 310.7262 0003333 233.3088 126.7596 15.53023568  3126
OPTIMAL-1               
1 55183U 98067VA  23026.37482188  .00047968  00000+0  76611-3 0  9993
2 55183  51.6422 310.7395 0004025 341.2390  18.8452 15.52691906  3123
APSTAR 6E               
1 55239U 23005A   23023.24244036 -.00000004  00000+0  00000+0 0  9992
2 55239  33.3212  13.0973 3305985 140.1267 317.2134  8.23856059  1308
CZ-2D R/B               
1 55240U 23005B   23025.13387347  .00002262 -71514-5  00000+0 0  9999
2 55240  28.5070 294.2454 0161031 254.0830 253.1331 15.89554322  1962
2023-006A               
1 55242U 23006A   23026.66748369  .00023084  00000+0  11442-2 0  9991
2 55242  43.2017 132.2201 0009515   0.3559 141.5298 15.17302300  2037
2023-006B               
1 55243U 23006B   23026.61353009  .00011361  00000+0  57483-3 0  9991
2 55243  43.2019 132.5361 0008913 358.6145 201.0978 15.17014452  2025
2023-006C               
1 55244U 23006C   23026.55203704  .00010550  00000+0  54539-3 0  9999
2 55244  43.2009 132.9576 0006014 343.0940 209.1320 15.16332230  1966
2023-006D               
1 55245U 23006D   23026.67012603  .00033822  00000+0  16785-2 0  9996
2 55245  43.2004 132.2479 0007102 350.0993 148.6671 15.17107749  1997
2023-007A               
1 55248U 23007A   23026.55567565  .00018629  00000+0  76006-3 0  9990
2 55248  97.3772 100.8327 0008811 196.9435 270.2358 15.24437887  1745
2023-007B               
1 55249U 23007B   23026.62415234  .00020573  00000+0  82942-3 0  9991
2 55249  97.3784 100.9084 0008221 207.5359 290.0614 15.24823000  1740
2023-007C               
1 55250U 23007C   23026.62211285  .00028466  00000+0  11324-2 0  9997
2 55250  97.3754 100.9075 0007911 211.2602 287.0518 15.25207515  1744
2023-007D               
1 55251U 23007D   23026.62151979  .00027737  00000+0  11016-2 0  9999
2 55251  97.3819 100.9174 0008311 214.6773 283.0286 15.25262700  1743
2023-007E               
1 55252U 23007E   23026.21821382 -.00456169  00000+0 -19484-1 0  9990
2 55252  97.3711 100.5069 0008252 219.1861 225.0605 15.24874971  1688
2023-007F               
1 55253U 23007F   23026.62076711  .00018895  00000+0  75220-3 0  9994
2 55253  97.3761 100.9092 0008027 219.8215 278.3495 15.25267198  1747
2023-007G               
1 55254U 23007G   23026.62013940  .00020885  00000+0  82861-3 0  9991
2 55254  97.3799 100.9151 0007737 222.6293 275.0744 15.25361692  1745
2023-007H               
1 55255U 23007H   23026.61114221  .00035476  00000+0  13773-2 0  9992
2 55255  97.3731 100.9048 0008439 231.9781 234.1810 15.25968867  1749
2023-007J               
1 55256U 23007J   23026.61734477  .00026330  00000+0  10294-2 0  9998
2 55256  97.3765 100.9145 0007952 233.7810 263.9990 15.25803304  1740
2023-007K               
1 55257U 23007K   23026.61768072  .00013811  00000+0  54537-3 0  9996
2 55257  97.3758 100.9122 0007642 236.6406 261.1483 15.25609899  1747
2023-007L               
1 55258U 23007L   23026.61673806  .00017238  00000+0  67630-3 0  9992
2 55258  97.3772 100.9163 0007540 238.2920 259.4660 15.25777303  1748
2023-007M               
1 55259U 23007M   23026.61646509  .00015739  00000+0  61285-3 0  9997
2 55259  97.3729 100.9131 0007734 248.9337 259.2819 15.26047230  1745
2023-007N               
1 55260U 23007N   23026.60876575  .00022453  00000+0  85248-3 0  9992
2 55260  97.3727 100.9185 0007894 269.5564 224.6213 15.26811303  1746
2023-007P               
1 55261U 23007P   23026.60797116  .00019172  00000+0  72713-3 0  9993
2 55261  97.3728 100.9189 0008619 270.3045 223.8586 15.26874287  1746
